[{"OBJECT_NAME":"JILIN-1 GAOFEN 3A","OBJECT_ID":"2019-032C","EPOCH":"2026-03-09T17:53:24.364896","MEAN_MOTION":15.3027131,"ECCENTRICITY":0.00026181,"INCLINATION":44.9746,"RA_OF_ASC_NODE":183.2861,"ARG_OF_PERICENTER":111.29,"MEAN_ANOMALY":248.8263,"EPHEMERIS_TYPE":0,"CLASSIFICATION_TYPE":"U","NORAD_CAT_ID":44312,"ELEMENT_SET_NO":999,"REV_AT_EPOCH":37259,"BSTAR":0.00055381133,"MEAN_MOTION_DOT":0.00016264,"MEAN_MOTION_DDOT":0},{"OBJECT_NAME":"STARLINK-35627","OBJECT_ID":"2025-240AC","EPOCH":"2026-03-09T23:41:37.440960","MEAN_MOTION":15.30202636,"ECCENTRICITY":0.00013823,"INCLINATION":53.1592,"RA_OF_ASC_NODE":61.4385,"ARG_OF_PERICENTER":101.735,"MEAN_ANOMALY":258.3805,"EPHEMERIS_TYPE":0,"CLASSIFICATION_TYPE":"U","NORAD_CAT_ID":66172,"ELEMENT_SET_NO":999,"REV_AT_EPOCH":2203,"BSTAR":0.00097583491,"MEAN_MOTION_DOT":0.00028656,"MEAN_MOTION_DDOT":0}]
